ONEWEB-0068             
1 45446U 20020Y   26185.24381640 -.00000331  00000+0 -97072-3 0  9993
2 45446  87.8884  17.6684 0001651  86.5469 273.5847 13.11414775304839
ONEWEB-0046             
1 45447U 20020Z   26185.23547705  .00000020  00000+0  20724-4 0  9993
2 45447  87.8876  17.6748 0001787  79.8167 280.3163 13.11414998304847
ONEWEB-0063             
1 45448U 20020AA  26184.95924682 -.00000302  00000+0 -88841-3 0  9993
2 45448  87.8888  17.7303 0002040  82.4706 277.6654 13.11417784304896
ONEWEB-0019             
1 45449U 20020AB  26185.22686752  .00000337  00000+0  91626-3 0  9999
2 45449  87.8880  17.6622 0001875  93.1296 267.0046 13.11414788304776
ONEWEB-0094             
1 45450U 20020AC  26185.21265047 -.00000018  00000+0 -80357-4 0  9998
2 45450  87.9141   2.4629 0001723  95.4249 264.7079 13.17648196308551
ONEWEB-0087             
1 45451U 20020AD  26184.81655462  .00000162  00000+0  42215-3 0  9996
2 45451  87.8898  17.7340 0001533  86.7036 273.4267 13.11418136304763
ONEWEB-0082             
1 45452U 20020AE  26184.81316486 -.00000039  00000+0 -14591-3 0  9998
2 45452  87.8890  17.7499 0001491  76.0717 284.0577 13.11418135304853
ONEWEB-0050             
1 45453U 20020AF  26185.06202368  .00002208  00000+0  22447-3 0  9997
2 45453  88.9288 230.9194 0000499 272.6528  87.4644 14.90445052342891
ONEWEB-0034             
1 45454U 20020AG  26185.23223343  .00000160  00000+0  41483-3 0  9999
2 45454  87.8886  17.6759 0001830  87.7405 272.3933 13.11414171304827
ONEWEB-0060             
1 45455U 20020AH  26184.80566944 -.00000347  00000+0 -10163-2 0  9998
2 45455  87.8881  17.7575 0000827  93.9437 266.1786 13.11417629304726
ONEWEB-0086             
1 45456U 20020AJ  26185.24212127 -.00000270  00000+0 -79685-3 0  9999
2 45456  87.8885  17.6670 0001430 112.2046 247.9234 13.11415025304844
ONEWEB-0088             
1 45457U 20020AK  26184.76243844  .00000507  00000+0  13947-2 0  9995
2 45457  87.8895  17.7367 0001967  76.4011 283.7336 13.11415173304719
ONEWEB-0102             
1 47258U 20100A   26185.21109723  .00000421  00000+0  11346-2 0  9999
2 47258  87.8951 347.2887 0001853 103.4068 256.7267 13.12442286266961
ONEWEB-0109             
1 47259U 20100B   26185.14332917  .00000321  00000+0  85731-3 0  9994
2 47259  87.8958 347.2869 0001954  96.8849 263.2502 13.12441856266780
ONEWEB-0110             
1 47260U 20100C   26185.17043495 -.00000384  00000+0 -11026-2 0  9995
2 47260  87.8961 347.2660 0001638 101.5681 258.5632 13.12442649266953
ONEWEB-0111             
1 47261U 20100D   26185.20093133  .00000408  00000+0  10988-2 0  9995
2 47261  87.8960 347.2785 0001724  93.6127 266.5199 13.12443499266796
ONEWEB-0114             
1 47262U 20100E   26185.15517670 -.00000083  00000+0 -26697-3 0  9993
2 47262  87.8962 347.2853 0002037  96.3806 263.7554 13.12441450266741
ONEWEB-0117             
1 47263U 20100F   26185.14670878  .00000228  00000+0  59943-3 0  9992
2 47263  87.8959 347.2774 0001801  95.2093 264.9241 13.12441576266750
ONEWEB-0118             
1 47264U 20100G   26185.18058674 -.00000301  00000+0 -87228-3 0  9992
2 47264  87.8961 347.2736 0002076  88.0926 272.0440 13.12442169266954
ONEWEB-0119             
1 47265U 20100H   26185.20601133  .00000497  00000+0  13469-2 0  9999
2 47265  87.8950 347.2836 0001856  94.6219 265.5121 13.12442387266930
ONEWEB-0120             
1 47266U 20100J   26185.15361950 -.00000090  00000+0 -28568-3 0  9992
2 47266  87.8949 347.2952 0001997  96.7146 263.4210 13.12440621266953
ONEWEB-0121             
1 47267U 20100K   26185.14162665  .00000319  00000+0  85217-3 0  9990
2 47267  87.8960 347.2852 0001542  90.7260 269.4045 13.12441250266864
ONEWEB-0122             
1 47268U 20100L   26185.21193864  .00000477  00000+0  12918-2 0  9996
2 47268  87.8962 347.2762 0001870  99.1045 261.0295 13.12443341266784
ONEWEB-0123             
1 47269U 20100M   26185.20770195  .00000409  00000+0  11024-2 0  9996
2 47269  87.8950 347.2823 0001906  91.5886 268.5461 13.12442247266926
ONEWEB-0124             
1 47270U 20100N   26185.19753593  .00000285  00000+0  75732-3 0  9998
2 47270  87.8947 347.2872 0001742  92.6660 267.4668 13.12442987266803
ONEWEB-0125             
1 47271U 20100P   26185.17550498 -.00000395  00000+0 -11331-2 0  9994
2 47271  87.8960 347.2768 0001736  84.5805 275.5522 13.12442725266862
ONEWEB-0126             
1 47272U 20100Q   26185.19598942  .00000187  00000+0  48395-3 0  9991
2 47272  87.8954 347.2873 0001966  95.1402 264.9951 13.12442759266932
ONEWEB-0127             
1 47273U 20100R   26185.16195586 -.00000344  00000+0 -99104-3 0  9997
2 47273  87.8948 347.2919 0001939  96.1444 263.9906 13.12441577266952
ONEWEB-0128             
1 47274U 20100S   26185.18397971 -.00000203  00000+0 -59972-3 0  9995
2 47274  87.8948 347.3015 0001596 101.9530 258.1778 13.12443197266976
ONEWEB-0129             
1 47275U 20100T   26185.16364399 -.00000374  00000+0 -10753-2 0  9994
2 47275  87.8957 347.2809 0002917 103.0559 257.0895 13.12440956266900
