OBJECT_NAME,OBJECT_ID,EPOCH,MEAN_MOTION,ECCENTRICITY,INCLINATION,RA_OF_ASC_NODE,ARG_OF_PERICENTER,MEAN_ANOMALY,EPHEMERIS_TYPE,CLASSIFICATION_TYPE,NORAD_CAT_ID,ELEMENT_SET_NO,REV_AT_EPOCH,BSTAR,MEAN_MOTION_DOT,MEAN_MOTION_DDOT
ONEWEB-0068,2020-020Y,2026-07-04T05:51:05.736960,13.11414775,.00016515,87.8884,17.6684,86.5469,273.5847,0,U,45446,999,30483,-.97071995E-3,-.331E-5,0
ONEWEB-0046,2020-020Z,2026-07-04T05:39:05.217120,13.11414998,.00017877,87.8876,17.6748,79.8167,280.3163,0,U,45447,999,30484,.20724451E-4,.2E-6,0
ONEWEB-0063,2020-020AA,2026-07-03T23:01:18.925248,13.11417784,.00020402,87.8888,17.7303,82.4706,277.6654,0,U,45448,999,30489,-.88840532E-3,-.302E-5,0
ONEWEB-0019,2020-020AB,2026-07-04T05:26:41.353728,13.11414788,.00018757,87.8880,17.6622,93.1296,267.0046,0,U,45449,999,30477,.91625761E-3,.337E-5,0
ONEWEB-0094,2020-020AC,2026-07-04T05:06:13.000608,13.17648196,.00017238,87.9141,2.4629,95.4249,264.7079,0,U,45450,999,30855,-.80356719E-4,-.18E-6,0
ONEWEB-0087,2020-020AD,2026-07-03T19:35:50.319168,13.11418136,.00015335,87.8898,17.7340,86.7036,273.4267,0,U,45451,999,30476,.42214614E-3,.162E-5,0
ONEWEB-0082,2020-020AE,2026-07-03T19:30:57.443904,13.11418135,.00014919,87.8890,17.7499,76.0717,284.0577,0,U,45452,999,30485,-.14590903E-3,-.39E-6,0
ONEWEB-0050,2020-020AF,2026-07-04T01:29:18.845952,14.90445052,.0000499,88.9288,230.9194,272.6528,87.4644,0,U,45453,999,34289,.22447185E-3,.2208E-4,0
ONEWEB-0034,2020-020AG,2026-07-04T05:34:24.968352,13.11414171,.00018309,87.8886,17.6759,87.7405,272.3933,0,U,45454,999,30482,.41483421E-3,.16E-5,0
ONEWEB-0060,2020-020AH,2026-07-03T19:20:09.839616,13.11417629,.00008273,87.8881,17.7575,93.9437,266.1786,0,U,45455,999,30472,-.10162789E-2,-.347E-5,0
ONEWEB-0086,2020-020AJ,2026-07-04T05:48:39.277728,13.11415025,.00014307,87.8885,17.6670,112.2046,247.9234,0,U,45456,999,30484,-.7968541E-3,-.27E-5,0
ONEWEB-0088,2020-020AK,2026-07-03T18:17:54.681216,13.11415173,.00019673,87.8895,17.7367,76.4011,283.7336,0,U,45457,999,30471,.13946574E-2,.507E-5,0
ONEWEB-0102,2020-100A,2026-07-04T05:03:58.800672,13.12442286,.00018538,87.8951,347.2887,103.4068,256.7267,0,U,47258,999,26696,.11345831E-2,.421E-5,0
ONEWEB-0109,2020-100B,2026-07-04T03:26:23.640288,13.12441856,.00019548,87.8958,347.2869,96.8849,263.2502,0,U,47259,999,26678,.8573109E-3,.321E-5,0
ONEWEB-0110,2020-100C,2026-07-04T04:05:25.579680,13.12442649,.0001638,87.8961,347.2660,101.5681,258.5632,0,U,47260,999,26695,-.11025835E-2,-.384E-5,0
ONEWEB-0111,2020-100D,2026-07-04T04:49:20.466912,13.12443499,.00017244,87.8960,347.2785,93.6127,266.5199,0,U,47261,999,26679,.10988069E-2,.408E-5,0
ONEWEB-0114,2020-100E,2026-07-04T03:43:27.266880,13.12441450,.00020375,87.8962,347.2853,96.3806,263.7554,0,U,47262,999,26674,-.26696903E-3,-.83E-6,0
ONEWEB-0117,2020-100F,2026-07-04T03:31:15.638592,13.12441576,.00018011,87.8959,347.2774,95.2093,264.9241,0,U,47263,999,26675,.5994268E-3,.228E-5,0
ONEWEB-0118,2020-100G,2026-07-04T04:20:02.694336,13.12442169,.00020763,87.8961,347.2736,88.0926,272.0440,0,U,47264,999,26695,-.87228496E-3,-.301E-5,0
ONEWEB-0119,2020-100H,2026-07-04T04:56:39.378912,13.12442387,.00018565,87.8950,347.2836,94.6219,265.5121,0,U,47265,999,26693,.13469291E-2,.497E-5,0
ONEWEB-0120,2020-100J,2026-07-04T03:41:12.724800,13.12440621,.00019976,87.8949,347.2952,96.7146,263.4210,0,U,47266,999,26695,-.28567637E-3,-.9E-6,0
ONEWEB-0121,2020-100K,2026-07-04T03:23:56.542560,13.12441250,.00015426,87.8960,347.2852,90.7260,269.4045,0,U,47267,999,26686,.85217232E-3,.319E-5,0
ONEWEB-0122,2020-100L,2026-07-04T05:05:11.498496,13.12443341,.000187,87.8962,347.2762,99.1045,261.0295,0,U,47268,999,26678,.12917512E-2,.477E-5,0
ONEWEB-0123,2020-100M,2026-07-04T04:59:05.448480,13.12442247,.00019061,87.8950,347.2823,91.5886,268.5461,0,U,47269,999,26692,.11023813E-2,.409E-5,0
ONEWEB-0124,2020-100N,2026-07-04T04:44:27.104352,13.12442987,.00017427,87.8947,347.2872,92.6660,267.4668,0,U,47270,999,26680,.75731627E-3,.285E-5,0
ONEWEB-0125,2020-100P,2026-07-04T04:12:43.630272,13.12442725,.00017363,87.8960,347.2768,84.5805,275.5522,0,U,47271,999,26686,-.11331154E-2,-.395E-5,0
ONEWEB-0126,2020-100Q,2026-07-04T04:42:13.485888,13.12442759,.0001966,87.8954,347.2873,95.1402,264.9951,0,U,47272,999,26693,.48394514E-3,.187E-5,0
ONEWEB-0127,2020-100R,2026-07-04T03:53:12.986304,13.12441577,.0001939,87.8948,347.2919,96.1444,263.9906,0,U,47273,999,26695,-.99103516E-3,-.344E-5,0
ONEWEB-0128,2020-100S,2026-07-04T04:24:55.846944,13.12443197,.00015962,87.8948,347.3015,101.9530,258.1778,0,U,47274,999,26697,-.59972341E-3,-.203E-5,0
ONEWEB-0129,2020-100T,2026-07-04T03:55:38.840736,13.12440956,.00029171,87.8957,347.2809,103.0559,257.0895,0,U,47275,999,26690,-.10752565E-2,-.374E-5,0
